[
  "TORO                    \r\n1 60530U 24149BQ  26182.14801925  .00002486  00000+0  22400-3 0  9993\r\n2 60530  97.6783 256.5552 0001307  97.4360 262.7010 14.96472616102047\r\n",
  "TORO3                   \r\n1 68481U 26067BT  26182.11475381  .00000802  00000+0  84322-4 0  9999\r\n2 68481  97.7677 140.2755 0001267 271.5241  88.5833 14.92150843 13808\r\n",
  "SATORO-T3               \r\n1 64589U 25135BP  26182.15719953  .00001719  00000+0  16497-3 0  9994\r\n2 64589  97.7730 296.5421 0003460 292.2277  67.8576 14.94388993 55995\r\n",
  "GEMINI-POLLUX           \r\n1 69000U 26100W   26181.94122479  .00002125  00000+0  21365-3 0  9999\r\n2 69000  97.7310  79.1590 0001458 118.5854 241.5512 14.92277808  8753\r\n",
  "FORMOSAT-2 (ROCSAT 2)   \r\n1 28254U 04018A   26182.16424059 -.00000216  00000+0 -11541-3 0  9999\r\n2 28254  98.8458 149.2182 0000756 316.0671  55.4484 14.01257538130712\r\n",
  "FORMOSAT-3 FM6          \r\n1 29047U 06011A   26182.00954648  .00000465  00000+0  18852-3 0  9996\r\n2 29047  71.9780 283.0159 0049281 215.5753 144.2097 14.31409263 56388\r\n",
  "FORMOSAT-3 FM1          \r\n1 29048U 06011B   26182.14322089  .00000349  00000+0  14608-3 0  9996\r\n2 29048  71.9641 191.1445 0042058 178.9407 181.1827 14.31399732 58770\r\n",
  "FORMOSAT-3 FM5          \r\n1 29049U 06011C   26181.98365120  .00000403  00000+0  16627-3 0  9995\r\n2 29049  72.0188  15.6796 0033990 185.6010 174.4753 14.31414475 54645\r\n",
  "FORMOSAT-3 FM3          \r\n1 29050U 06011D   26182.02774475  .00001215  00000+0  22275-3 0  9998\r\n2 29050  72.0139 282.3224 0044970 260.4464  99.1610 14.66988120 78403\r\n",
  "FORMOSAT-3 FM4          \r\n1 29051U 06011E   26181.66311049  .00000366  00000+0  14964-3 0  9994\r\n2 29051  72.0043 273.8558 0064335  66.5178 294.2704 14.31550056 57197\r\n",
  "FORMOSAT-3 FM2          \r\n1 29052U 06011F   26181.87088892  .00000449  00000+0  18254-3 0  9993\r\n2 29052  72.0331 354.2902 0037852 138.3606 222.0426 14.31628301 54740\r\n",
  "PACE                    \r\n1 40022U 14033N   26181.97110556  .00006191  00000+0  37523-3 0  9990\r\n2 40022  98.1231 187.6884 0006862 158.7168 201.4346 15.10951447655119\r\n",
  "FORMOSAT-5              \r\n1 42920U 17049A   26182.12139304  .00000173  00000+0  54921-4 0  9995\r\n2 42920  98.2252 257.1215 0012229  45.4196 314.7995 14.50903839468698\r\n",
  "FORMOSAT 7-3            \r\n1 44343U 19036E   26182.12811659  .00005342  00000+0  30027-3 0  9997\r\n2 44343  23.9994  82.5819 0001024  84.4129 275.6491 15.09897128385352\r\n",
  "FORMOSAT 7-1            \r\n1 44349U 19036L   26181.98227109  .00002852  00000+0  21863-3 0  9998\r\n2 44349  23.9989 299.3910 0000793  12.2829 347.7691 14.96565547386727\r\n",
  "FORMOSAT 7-4            \r\n1 44350U 19036M   26181.87147115  .00003009  00000+0  23220-3 0  9990\r\n2 44350  24.0000   2.2418 0001148   7.4925 352.5593 14.96557200386123\r\n",
  "FORMOSAT 7-2            \r\n1 44351U 19036N   26181.96049442  .00002957  00000+0  22775-3 0  9990\r\n2 44351  23.9994  55.9555 0000629  18.5813 341.4711 14.96555200385657\r\n",
  "FORMOSAT 7-6            \r\n1 44353U 19036Q   26181.49340533  .00002371  00000+0  17740-3 0  9991\r\n2 44353  23.9968 239.9218 0000734 246.4150 113.6274 14.96563624383811\r\n",
  "FORMOSAT 7-5            \r\n1 44358U 19036V   26180.67053123  .00002383  00000+0  17846-3 0  9991\r\n2 44358  23.9968 184.2173 0000230  39.3929 320.6589 14.96562898384229\r\n",
  "FORMOSAT-7R (TRITON)    \r\n1 58017U 23155B   26182.12990649  .00001703  00000+0  17722-3 0  9998\r\n2 58017  97.8356 263.4260 0002273  69.5823 290.5639 14.91159394148307\r\n",
  "NIGHTJAR                \r\n1 60535U 24149BV  26182.14303252  .00003710  00000+0  31026-3 0  9993\r\n2 60535  97.6829 258.6539 0001289 118.4214 241.7139 14.99090686144964\r\n",
  "IRIS-F3                 \r\n1 62619U 25009L   26181.94660553  .00006470  00000+0  24533-3 0  9992\r\n2 62619  97.4049 262.6808 0004798 272.8120  87.2570 15.27206607 80925\r\n",
  "IRIS-F2                 \r\n1 62684U 25009CD  26182.02888016  .00017605  00000+0  66547-3 0  9993\r\n2 62684  97.3895 261.6665 0003963 303.6958  56.3903 15.27031077138579\r\n",
  "FORMOSAT-8A             \r\n1 66666U 25276A   26182.14098344  .00001828  00000+0  14894-3 0  9991\r\n2 66666  97.6548 256.1756 0003818 185.0791 175.0394 15.00714083 32153\r\n",
  "LILIUM-2                \r\n1 66679U 25276P   26182.14827565  .00003471  00000+0  17374-3 0  9992\r\n2 66679  97.4152 254.9122 0004974 331.8775  28.2189 15.18044291 32513\r\n",
  "BLACK KITE-1            \r\n1 66741U 25276CD  26182.12812671  .00010358  00000+0  47274-3 0  9996\r\n2 66741  97.4243 255.6462 0004108 308.2777  51.8088 15.20788929 29846\r\n",
  "T.MICROSAT-1            \r\n1 66766U 25276DE  26181.62962231  .00005990  00000+0  27357-3 0  9991\r\n2 66766  97.4161 255.1475 0002144 113.4297 246.7164 15.20954923 32485\r\n",
  "LILIUM-3                \r\n1 66770U 25276DJ  26182.11928329  .00003729  00000+0  17842-3 0  9997\r\n2 66770  97.4240 255.6475 0002034 157.0610 203.0716 15.19583207 32541\r\n",
  "T.MICROSAT-2            \r\n1 68433U 26067T   26181.44686645  .00005076  00000+0  25632-3 0  9994\r\n2 68433  97.4574 139.6180 0006570  33.2802 326.8844 15.17519131 13942\r\n",
  "PARUS-6U1               \r\n1 68456U 26067AS  26181.83723985  .00006760  00000+0  33884-3 0  9990\r\n2 68456  97.4560 139.9920 0006415  35.1767 324.9889 15.17659408 14004\r\n",
  "BLACK KITE-2            \r\n1 68474U 26067BL  26182.15849905  .00003287  00000+0  32451-3 0  9997\r\n2 68474  97.7553 140.2407 0002230 150.3576 209.7770 14.92644662 13818\r\n",
  "PEARL-1B                \r\n1 68980U 26100A   26181.53674314  .00002455  00000+0  25620-3 0  9994\r\n2 68980  97.7354  78.6370 0008879 100.4736 259.7483 14.90615501  8673\r\n",
  "PEARL-1A                \r\n1 68990U 26100L   26181.99010149  .00001827  00000+0  19026-3 0  9990\r\n2 68990  97.7299  79.0867 0006723 111.0027 249.1911 14.91019008  8754\r\n"
]